SKYKRAFT-1A             
1 55054U 23001AX  26068.71064616  .00008177  00000+0  30069-3 0  9991
2 55054  97.3349 127.6290 0011277 121.5092 238.7251 15.28083228176529
STARLINK-30810          
1 58178U 23167D   26067.27332530 -.00002157  00000+0 -70786-4 0  9992
2 58178  42.9955 150.9596 0000513 285.2891  74.7904 15.26740310130772
